#dP2022 11 24  6  0  0.00000000      96 __u+U ITR00 EXT  IAC
## 2237 367200.00000000   900.00000000 59907 0.2500000000000
+  117   C06C07C08C09C10C11C12C13C14C16C19C20C21C22C23C24C25
+        C26C27C28C29C30C32C33C34C35C36C37C38C39C40C41C42C43
+        C44C45C46E01E02E03E05E07E08E09E10E11E12E13E14E15E18
+        E19E21E24E25E26E27E30E31E33E34E36G01G02G03G04G05G06
+        G07G08G09G10G11G12G13G14G15G16G17G18G19G20G21G22G23
+        G24G25G26G27G29G30G31G32J02J03J04R01R02R03R04R05R07
+        R08R09R11R12R13R14R15R17R18R19R20R21R22R24R25  0  0
++         9  8 10  9  8  9  8 10  8  9  9  8  8 10  8  9  7
++         8  8  8 10  8  8  8  7  9  9  8  9 10 11  8  9  8
++        10  8 10  9  7  8  7  7  9  7  7  8  9  8 11  9  8
++         8  9  8  8  8  7  8  7  7  7  9  7  8  7  7  7  8
++         7  9  7  9  8  9  7  9  8  9  7  7  7  8  9  8  8
++         7  8  8  9  8  8  8  8  8  8 11 10  8  8  7  9  9
++         9 10  6  8  9  9 10  9  8  7 10  7  9 11  9  0  0
%c M  cc GPS ccc cccc cccc cccc cccc ccccc ccccc ccccc ccccc
%c cc cc ccc ccc cccc cccc cccc cccc ccccc ccccc ccccc ccccc
%f  0.0000000  0.000000000  0.00000000000  0.000000000000000
%f  0.0000000  0.000000000  0.00000000000  0.000000000000000
%i    0    0    0    0      0      0      0      0         0
%i    0    0    0    0      0      0      0      0         0
/* IAC                                ULTRA-RAPID PREDICTION
/* S/V CLOCKS ARE ALIGNED TO GNSS TIME                      
/* G:C1WC2W R:C1PC2P E:C1XC5X C:C2IC6I J:C1CC2S             
/* PCV:IGS14_2233 OL/AL:FES2004  NONE     YN ORB:CoN CLK:CoN
*  2022 11 24 12 30  0.00000000
PC06 -10598.002426  40676.723806   -711.542629     -6.063295
PC07  -3258.387694  29306.950853  30232.852322    169.431327
PC08 -18364.757889  23688.811073 -29741.949182    515.837860
PC09  -5716.852797  40702.647922   8407.869853   -799.179258
PC10   4960.367936  32147.341455  27365.170874     63.014256
PC11  15453.462466  -8213.893151 -21653.671731   -274.093605
PC12  12793.693558  12424.691189 -21422.797564    315.583265
PC13  -9009.067426  24714.992499 -32874.763521    141.386413
PC14  21359.683565      2.989687  17995.543978    204.588298
PC16 -13607.118064  39292.797611  -5857.232150    112.284911
PC19 -14661.171380   8236.875823 -22250.325541   -910.484567
PC20 -24085.598308  -6831.334929 -12301.365951    827.607162
PC21  19653.656903  18942.541612  -5827.684535   -891.193666
PC22   3662.024510  19301.552474 -19832.790501   -776.295070
PC23   8074.858687 -18696.268130 -19072.306369   -875.132811
PC24  24717.875265   -985.761971  12871.074803   -764.126038
PC25  22673.726396 -15287.129215  -5507.745179     29.437142
PC26  13026.182626  11223.380068  21958.664412    -40.436132
PC27  -9216.179590 -20552.405965  16465.515457     56.184265
PC28   2238.020152 -27787.854821   1203.670048     39.620655
PC29 -12583.645440  19025.330011  16074.243876     44.785035
PC30 -15857.444217  -1777.055719  22891.020195      1.049963
PC32 -19719.341360 -18830.820713   5945.268760   -706.376986
PC33  14736.156962  -8255.846399  22212.470407   -905.606827
PC34  16004.646446    368.957926 -22864.140730     46.355215
PC35  -2305.216628  27791.902035    352.905247    102.771199
PC36 -23367.117759  14460.604270   4921.298545   -817.087169
PC37 -11509.553120 -12303.505727 -22239.623037   -908.061001
PC38 -24545.327526  25052.241001 -23522.945484     40.341976
PC39 -14009.454328  38152.881651 -10838.549205     -0.933290
PC40  -7329.263991  23683.307860  34144.782248     -8.775718
PC41  -3091.262782 -19130.791218  20127.053743   -309.313053
PC42  24341.763447   7735.191073  11295.145631   -723.989704
PC43  13031.690621 -18319.990971 -16548.681170     26.644216
PC44   9974.572216  20338.929854 -16285.214664    123.973564
PC45  -7761.843391  18578.034226  19333.001493    -26.385675
PC46 -25359.162427   2471.716825 -11437.864908    -15.130500
PE01  13452.604779 -13847.347426 -22430.458572   -569.111149
PE02 -13223.443592  13938.472182  22524.552664      4.535117
PE03  -4393.454108  22598.173119 -18620.297475   -623.150807
PE05 -16732.527076   4101.188810 -24075.695829   -121.550982
PE07  19134.466379  16490.880612  15429.717254     -1.846066
PE08  10259.891521  27646.450596  -2609.480954   -637.617735
PE09 -19057.642650 -16655.307580 -15347.331366   -740.425166
PE10  -8096.509418 -15227.917749  24052.267839   -493.071655
PE11 -15783.822964  -5283.498576  24471.583871   1177.931445
PE12    146.866944 -21988.377667  19822.900532   -294.375896
PE13  15176.904192   6118.404732 -24657.547486    430.540991
PE14  13951.205414  27389.614027  -7082.620814     65.697671
PE15   -407.374890  22105.803029 -19672.862831    705.349883
PE18  -5923.855066 -24057.638389   -594.881877   -706.100751
PE19   6335.602882 -20669.881309  20219.504890  -3914.562901
PE21  27458.362959  -3983.269658 -10296.801637   -496.484598
PE24 -26375.650996  -9602.488981  -9455.204624   -964.979278
PE25 -27599.978459   3784.758095  10031.049207   -593.413196
PE26  21800.052177 -13926.083276 -14369.751759  -1882.065678
PE27  26862.747974   8942.718216   8614.479140   -447.218275
PE30   9549.074828  16659.270473  22515.530190  -1024.216725
PE31 -10485.937092 -16464.603631 -22245.837464   -508.974091
PE33  15633.594720 -24940.475261   3131.151113   -455.593077
PE34 -15495.581386  25014.737559  -3291.744457    -16.226081
PE36 -21699.315089  13274.894314  15142.499369   -465.537277
PG01 -12920.602075  21876.214487  -7411.475420    247.142054
PG02   8958.283298 -23457.426212   9591.141826   -636.359598
PG03  -8687.919046  13134.633569 -21495.378591   -374.095958
PG04  -2702.560008  22727.267993 -13386.266406    -80.775177
PG05  21198.003368  -6987.497835  14311.897737   -105.517924
PG06  16006.087933   2676.273779 -20974.522443    525.706426
PG07    495.974210  19405.764999  18329.846345    283.412368
PG08  -9695.723186  14150.684038  20133.207350    -95.374404
PG09   6973.834370  25397.641423  -3320.106399   -263.871452
PG10 -21569.108220 -11527.604565  10904.436353    -13.248552
PG11  21121.657569  -8199.004413 -13822.246489    -44.952474
PG12  10333.221896 -12457.112897 -21311.047560   -308.021471
PG13  13939.586482  -5990.517769  21608.993540    430.285496
PG14  19523.481848  13339.177021  12220.226074    -78.524768
PG15   8162.725464 -15657.988357  19312.905411     -9.730367
PG16 -24426.866610    729.625994  10674.828640   -526.794459
PG17  12568.740599  21173.842972  -9411.078214    680.588382
PG18  -1526.443830 -18062.314845  19363.698209    -33.827497
PG19  15547.762757  11747.574883 -18398.483155    241.620541
PG20  26306.953276  -1091.526946   2394.392009    467.964728
PG21 -16957.756136  19741.375985   3043.702252    155.362440
PG22 -15959.766128  -8693.261249 -19009.393194    371.075057
PG23 -12042.815686 -14762.509831  18559.557845     -0.782291
PG24  13819.493978 -22298.873120  -2564.930537     45.388925
PG25  -2006.135375 -15843.836548 -21553.277027    395.708765
PG26 -26453.039283  -3878.137714   -741.809593    236.708250
PG27 -15096.753986   1710.369684  21597.479712    170.452740
PG29  -3403.123786 -25825.190580  -5006.903755   -569.417264
PG30  11115.325571  11257.152459  21416.799843   -536.357090
PG31 -17644.365462  -1657.690553 -20073.902690   -201.190788
PG32 -15347.587308 -18230.681528 -11783.481442   -306.869726
PJ02 -29311.323096  22894.341827  24876.686555     -0.182695
PJ03 -30081.799778  27108.215305  16768.655056     -5.259579
PJ04 -26042.587122  20333.673503 -21015.996440    113.618850
PR01 -18990.993320 -16764.953637  -2977.703373     18.424659
PR02 -16347.428958  -4192.651039 -19119.009133    -23.375279
PR03  -4520.456902  10755.870849 -22637.975860     67.852956
PR04   9622.402132  19308.785922 -13573.813746    166.098994
PR05  18375.640084  17422.202936   2944.284447    103.445525
PR07   3821.698125 -11412.132004  22530.103092     44.895018
PR08  -9746.422955 -19375.736008  13506.656510    -68.238926
PR09  24810.796983  -5745.097772   2044.727631     89.343570
PR11   1008.472737 -11420.977637 -22777.407266     18.973826
PR12 -17836.730321  -4206.134631 -17729.316359     23.122578
PR13 -24790.010599   4776.442030  -3682.993383    -29.242004
PR14 -17288.737236  11788.142823  14588.531314     24.091105
PR15     64.889660  11307.881473  22882.646016     92.752150
PR17 -10304.151060  21909.211473   8115.252226    580.966508
PR18  -3160.590505  23753.414129  -8658.798209     53.564908
PR19   4647.482788  14622.356777 -20374.541353   -212.115966
PR20  12216.903859  -6493.952683 -21424.339002    -82.740961
PR21   9870.654632 -22580.564113  -6517.210025   -352.220716
PR22   3456.308576 -23485.504916   9380.171069     19.539894
PR24 -12522.771687   7374.545986  20991.306296    128.504590
PR25  11570.539726 -21088.888675  -8444.675391     47.150683
EOF
